[ {"OBJECT_NAME": "ISS (DESTINY)", "NORAD_CAT_ID": 26700, "MEAN_MOTION": 15.4891336, "ECCENTRICITY": 0.0006494, "INCLINATION": 51.6319, "RA_OF_ASC_NODE": 255.1813, "ARG_OF_PERICENTER": 311.8952, "MEAN_ANOMALY": 48.1482, "BSTAR": 0.00012575, "EPOCH": "2026-04-14T12:31:22"}, {"OBJECT_NAME": "ISS OBJECT XT", "NORAD_CAT_ID": 66907, "MEAN_MOTION": 15.85527994, "ECCENTRICITY": 0.0009779, "INCLINATION": 51.6198, "RA_OF_ASC_NODE": 245.7992, "ARG_OF_PERICENTER": 304.726, "MEAN_ANOMALY": 55.2822, "BSTAR": 0.00097677, "EPOCH": "2026-04-13T13:50:59"}, {"OBJECT_NAME": "ISS OBJECT XU", "NORAD_CAT_ID": 66908, "MEAN_MOTION": 15.86532664, "ECCENTRICITY": 0.0010082, "INCLINATION": 51.6201, "RA_OF_ASC_NODE": 240.1417, "ARG_OF_PERICENTER": 308.5704, "MEAN_ANOMALY": 51.4396, "BSTAR": 0.00090265, "EPOCH": "2026-04-14T15:22:25"}, {"OBJECT_NAME": "ISS OBJECT XW", "NORAD_CAT_ID": 66910, "MEAN_MOTION": 15.82666844, "ECCENTRICITY": 0.0009406, "INCLINATION": 51.619, "RA_OF_ASC_NODE": 243.3576, "ARG_OF_PERICENTER": 301.7076, "MEAN_ANOMALY": 58.3009, "BSTAR": 0.00088482, "EPOCH": "2026-04-14T02:40:02"}, {"OBJECT_NAME": "SBIRS GEO-1 (USA 230)", "NORAD_CAT_ID": 37481, "MEAN_MOTION": 1.00272405, "ECCENTRICITY": 0.0002342, "INCLINATION": 4.3968, "RA_OF_ASC_NODE": 53.1174, "ARG_OF_PERICENTER": 325.8852, "MEAN_ANOMALY": 261.0122, "BSTAR": 0.0, "EPOCH": "2026-04-14T01:43:51"}, {"OBJECT_NAME": "SBIRS GEO-2 (USA 241)", "NORAD_CAT_ID": 39120, "MEAN_MOTION": 1.00271602, "ECCENTRICITY": 0.0002315, "INCLINATION": 4.3527, "RA_OF_ASC_NODE": 52.433, "ARG_OF_PERICENTER": 327.5256, "MEAN_ANOMALY": 255.6655, "BSTAR": 0.0, "EPOCH": "2026-04-14T08:11:38"}, {"OBJECT_NAME": "SBIRS GEO-4 (USA 273)", "NORAD_CAT_ID": 41937, "MEAN_MOTION": 1.00272455, "ECCENTRICITY": 0.0002273, "INCLINATION": 2.1229, "RA_OF_ASC_NODE": 41.3801, "ARG_OF_PERICENTER": 340.0584, "MEAN_ANOMALY": 244.4284, "BSTAR": 0.0, "EPOCH": "2026-04-14T02:50:38"}, {"OBJECT_NAME": "SBIRS GEO-3 (USA 282)", "NORAD_CAT_ID": 43162, "MEAN_MOTION": 1.00272121, "ECCENTRICITY": 0.0002172, "INCLINATION": 2.1441, "RA_OF_ASC_NODE": 8.9785, "ARG_OF_PERICENTER": 12.2288, "MEAN_ANOMALY": 221.962, "BSTAR": 0.0, "EPOCH": "2026-04-14T13:19:20"}, {"OBJECT_NAME": "SBIRS GEO-5 (USA 315)", "NORAD_CAT_ID": 48618, "MEAN_MOTION": 1.0027153, "ECCENTRICITY": 0.0001269, "INCLINATION": 5.1868, "RA_OF_ASC_NODE": 328.6257, "ARG_OF_PERICENTER": 64.0819, "MEAN_ANOMALY": 291.2583, "BSTAR": 0.0, "EPOCH": "2026-04-14T01:51:38"}, {"OBJECT_NAME": "SBIRS GEO-6 (USA 336)", "NORAD_CAT_ID": 53355, "MEAN_MOTION": 1.00271621, "ECCENTRICITY": 0.0002023, "INCLINATION": 3.3682, "RA_OF_ASC_NODE": 316.4508, "ARG_OF_PERICENTER": 62.5925, "MEAN_ANOMALY": 199.4422, "BSTAR": 0.0, "EPOCH": "2026-04-14T15:46:37"}, {"OBJECT_NAME": "CAPELLA-11 (ACADIA-1)", "NORAD_CAT_ID": 57693, "MEAN_MOTION": 14.81287582, "ECCENTRICITY": 3e-05, "INCLINATION": 53.0061, "RA_OF_ASC_NODE": 100.9964, "ARG_OF_PERICENTER": 248.6859, "MEAN_ANOMALY": 111.4086, "BSTAR": 0.00028860999999999996, "EPOCH": "2026-04-14T09:17:52"}, {"OBJECT_NAME": "CAPELLA-14 (ACADIA-4)", "NORAD_CAT_ID": 59444, "MEAN_MOTION": 15.1202492, "ECCENTRICITY": 0.0006915, "INCLINATION": 45.6028, "RA_OF_ASC_NODE": 232.2793, "ARG_OF_PERICENTER": 305.1999, "MEAN_ANOMALY": 54.824, "BSTAR": 0.0005137399999999999, "EPOCH": "2026-04-14T07:53:55"}, {"OBJECT_NAME": "CAPELLA-15 (ACADIA-5)", "NORAD_CAT_ID": 60544, "MEAN_MOTION": 14.92413426, "ECCENTRICITY": 0.0002668, "INCLINATION": 97.6796, "RA_OF_ASC_NODE": 179.0434, "ARG_OF_PERICENTER": 285.2777, "MEAN_ANOMALY": 74.8148, "BSTAR": 0.00029351, "EPOCH": "2026-04-14T13:28:32"}, {"OBJECT_NAME": "CAPELLA-17 (ACADIA-7)", "NORAD_CAT_ID": 64583, "MEAN_MOTION": 14.91484847, "ECCENTRICITY": 0.0005584, "INCLINATION": 97.7608, "RA_OF_ASC_NODE": 218.3417, "ARG_OF_PERICENTER": 195.9729, "MEAN_ANOMALY": 164.1315, "BSTAR": 0.00045621, "EPOCH": "2026-04-13T17:35:59"}, {"OBJECT_NAME": "CAPELLA-13 (ACADIA-3)", "NORAD_CAT_ID": 60419, "MEAN_MOTION": 14.87651791, "ECCENTRICITY": 0.0001309, "INCLINATION": 53.006, "RA_OF_ASC_NODE": 336.2523, "ARG_OF_PERICENTER": 89.1453, "MEAN_ANOMALY": 270.9677, "BSTAR": 0.00031042, "EPOCH": "2026-04-14T08:12:19"}, {"OBJECT_NAME": "CAPELLA-16 (ACADIA-6)", "NORAD_CAT_ID": 65318, "MEAN_MOTION": 14.94074717, "ECCENTRICITY": 0.0005971, "INCLINATION": 97.7363, "RA_OF_ASC_NODE": 180.5541, "ARG_OF_PERICENTER": 100.0342, "MEAN_ANOMALY": 260.1553, "BSTAR": 0.00032809, "EPOCH": "2026-04-14T11:21:12"}]