ISS (DESTINY)
1 26700U 01006B   26104.52178440  .00006465  00000+0  12575-3 0  9999
2 26700  51.6319 255.1813 0006494 311.8952  48.1482 15.48913360561457
SBIRS GEO-1 (USA 230)
1 37481U 11019A   26104.07212388  .00000107  00000+0  00000+0 0  9995
2 37481   4.3968  53.1174 0002342 325.8852 261.0122  1.00272405 54756
SBIRS GEO-2 (USA 241)
1 39120U 13011A   26104.34141941 -.00000278  00000+0  00000+0 0  9997
2 39120   4.3527  52.4330 0002315 327.5256 255.6655  1.00271602 47897
SBIRS GEO-4 (USA 273)
1 41937U 17004A   26104.11850186  .00000129  00000+0  00000+0 0  9999
2 41937   2.1229  41.3801 0002273 340.0584 244.4284  1.00272455 33951
SBIRS GEO-3 (USA 282)
1 43162U 18009A   26104.55509603  .00000134  00000+0  00000+0 0  9996
2 43162   2.1441   8.9785 0002172  12.2288 221.9620  1.00272121 30205
SBIRS GEO-5 (USA 315)
1 48618U 21042A   26104.07753407 -.00000272  00000+0  00000+0 0  9992
2 48618   5.1868 328.6257 0001269  64.0819 291.2583  1.00271530 18127
SBIRS GEO-6 (USA 336)
1 53355U 22092A   26104.65737375 -.00000293  00000+0  00000+0 0  9995
2 53355   3.3682 316.4508 0002023  62.5925 199.4422  1.00271621 13597
CAPELLA-11 (ACADIA-1)
1 57693U 23126A   26104.38740805  .00002049  00000+0  28861-3 0  9994
2 57693  53.0061 100.9964 0000300 248.6859 111.4086 14.81287582142667
CAPELLA-14 (ACADIA-4)
1 59444U 24066C   26104.32911078  .00008722  00000+0  51374-3 0  9999
2 59444  45.6028 232.2793 0006915 305.1999  54.8240 15.12024920102819
CAPELLA-13 (ACADIA-3)
1 60419U 24142A   26104.34189675  .00002616  00000+0  31042-3 0  9996
2 60419  53.0060 336.2523 0001309  89.1453 270.9677 14.87651791 90908
CAPELLA-15 (ACADIA-5)
1 60544U 24149CE  26104.56149303  .00002951  00000+0  29351-3 0  9992
2 60544  97.6796 179.0434 0002668 285.2777  74.8148 14.92413426 90369
CAPELLA-17 (ACADIA-7)
1 64583U 25135BH  26103.73333307  .00004511  00000+0  45621-3 0  9994
2 64583  97.7608 218.3417 0005584 195.9729 164.1315 14.91484847 44240
CAPELLA-16 (ACADIA-6)
1 65318U 25188D   26104.47306222  .00003449  00000+0  32809-3 0  9990
2 65318  97.7363 180.5541 0005971 100.0342 260.1553 14.94074717 34403
ISS OBJECT XT
1 66907U 98067XT  26103.57707931  .00247531  00000+0  97677-3 0  9999
2 66907  51.6198 245.7992 0009779 304.7260  55.2822 15.85527994 20687
ISS OBJECT XU
1 66908U 98067XU  26104.64056733  .00240018  00000+0  90265-3 0  9995
2 66908  51.6201 240.1417 0010082 308.5704  51.4396 15.86532664 20852
ISS OBJECT XW
1 66910U 98067XW  26104.11113945  .00194299  00000+0  88482-3 0  9996
2 66910  51.6190 243.3576 0009406 301.7076  58.3009 15.82666844 20769
